INTELSAT 902 (IS-902)   
1 26900U 01039A   26192.05600875 -.00000282  00000+0  00000+0 0  9992
2 26900   6.1754  71.4907 0004434  35.3612 152.1729  1.00271276 90939
INTELSAT 904 (IS-904)   
1 27380U 02007A   26192.09419728 -.00000225  00000+0  00000+0 0  9997
2 27380   6.9768  68.8937 0005421  23.1226 199.4340  1.00271693 52003
DIRECTV 5 (TEMPO 1)     
1 27426U 02023A   26192.24061404 -.00000055  00000+0  00000+0 0  9998
2 27426   4.9363  75.0092 0003025  40.7993 149.8532  1.00271030 88364
INTELSAT 905 (IS-905)   
1 27438U 02027A   26192.18762502  .00000094  00000+0  00000+0 0  9997
2 27438   6.8113  69.5072 0003464  44.5821 105.3501  1.00270613 51602
GALAXY 3C (G-3C)        
1 27445U 02030A   26192.20387376 -.00000149  00000+0  00000+0 0  9996
2 27445   3.7927  77.6641 0001517  38.0615 151.9567  1.00270849 46735
INTELSAT 906 (IS-906)   
1 27513U 02041A   26192.10580676  .00000014  00000+0  00000+0 0  9991
2 27513   5.8613  72.6269 0003942  19.8146 298.7995  1.00272312 87262
GALAXY 13 (HORIZONS-1)  
1 27954U 03044A   26192.18238926  .00000138  00000+0  00000+0 0  9997
2 27954   1.4795  83.5588 0002209  21.4814  99.7093  1.00269501 46815
INTELSAT 10-02          
1 28358U 04022A   26192.19072829 -.00000004  00000+0  00000+0 0  9995
2 28358   0.0510 259.5719 0000428 349.0529 108.1316  1.00269641 80791
DIRECTV 8               
1 28659U 05019A   26192.23260124  .00000008  00000+0  00000+0 0  9991
2 28659   0.0175  73.7083 0003034  50.7353 129.3828  1.00270972 77315
GALAXY 28 (G-28)        
1 28702U 05022A   26191.98921124 -.00000195  00000+0  00000+0 0  9997
2 28702   3.3570  78.6355 0002124  28.9581 150.3241  1.00273740 52215
GALAXY 16 (G-16)        
1 29236U 06023A   26192.24481307 -.00000120  00000+0  00000+0 0  9994
2 29236   0.0352 115.8060 0002451   3.1111 159.3696  1.00271352 73217
DIRECTV 9S              
1 29494U 06043A   26192.20121845 -.00000109  00000+0  00000+0 0  9993
2 29494   2.4799  80.6131 0005005  32.0682 147.6685  1.00270960 51627
GALAXY 17 (G-17)        
1 31307U 07016B   26192.20931272 -.00000202  00000+0  00000+0 0  9997
2 31307   3.0296  79.5977 0003567  32.1088 167.7427  1.00270876 70049
INTELSAT 11 (IS-11)     
1 32253U 07044B   26192.19627999 -.00000056  00000+0  00000+0 0  9992
2 32253   3.6250  78.3779 0004030  99.8330 201.7179  0.99050834 68686
HORIZONS-2              
1 32388U 07063B   26192.21370134 -.00000249  00000+0  00000+0 0  9995
2 32388   2.6612  80.3314 0003570  17.6039 194.3269  1.00270531 68055
DIRECTV 11              
1 32729U 08013A   26192.24481301 -.00000119  00000+0  00000+0 0  9998
2 32729   0.0140 264.1266 0000125 294.6641  79.3106  1.00271597 45835
GALAXY 18 (G-18)        
1 32951U 08024A   26192.19396646  .00000000  00000+0  00000+0 0  9996
2 32951   0.0265  43.4258 0002801  82.0324 110.4783  1.00270245 46095
GALAXY 19 (G-19)        
1 33376U 08045A   26192.20666921 -.00000132  00000+0  00000+0 0  9996
2 33376   0.0536 247.9682 0002341 230.7499 147.7921  1.00272282 65141
FM-5                    
1 35493U 09034A   26192.20718933 -.00000193  00000+0  00000+0 0  9995
2 35493   0.0356 275.9829 0000522  53.2835 308.2744  1.00271247 46885
INTELSAT 14 (IS-14)     
1 36097U 09064A   26192.05670207 -.00000266  00000+0  00000+0 0  9994
2 36097   0.0180  27.4513 0002247  87.7018 149.2421  1.00271499 60848
INTELSAT 15 (IS-15)     
1 36106U 09067A   26192.08278014 -.00000177  00000+0  00000+0 0  9992
2 36106   0.0121  54.8164 0002111  63.3467 285.7864  1.00271385 41466
DIRECTV 12              
1 36131U 09075A   26191.40395524 -.00000093  00000+0  00000+0 0  9997
2 36131   0.0378 197.5077 0000394  15.9281 117.5818  1.00270757 46787
INTELSAT 16 (IS-16)     
1 36397U 10006A   26192.21171183 -.00000238  00000+0  00000+0 0  9991
2 36397   0.0118  22.9130 0002242 109.6323 156.5926  1.00271270 59896
XM-5                    
1 37185U 10053A   26192.23394750 -.00000016  00000+0  00000+0 0  9992
2 37185   0.0632 267.3191 0001833 317.7257  33.1258  1.00271696 57728
INTELSAT 17 (IS-17)     
1 37238U 10065B   26192.07108284  .00000006  00000+0  00000+0 0  9999
2 37238   0.0174  89.6152 0002674  23.5324 267.4184  1.00271863 53486
INTELSAT 28 (IS-28)     
1 37392U 11016A   26191.98725394 -.00000219  00000+0  00000+0 0  9990
2 37392   1.8648  82.3275 0003691  37.7037 132.5593  1.00272078 53526
INTELSAT 18 (IS-18)     
1 37834U 11056A   26192.23873558  .00000060  00000+0  00000+0 0  9993
2 37834   0.0238 290.6202 0001730 196.3847  68.0894  1.00272697 54053
INTELSAT 22 (IS-22)     
1 38098U 12011A   26192.16641972  .00000000  00000+0  00000+0 0  9997
2 38098   0.0379  67.9945 0001912  64.7917 288.2897  1.00271155  7425
INTELSAT 19 (IS-19)     
1 38356U 12030A   26192.19628213 -.00000049  00000+0  00000+0 0  9995
2 38356   0.0153  36.0079 0003081  87.7688  41.9899  1.00271017 50696
INTELSAT 20 (IS-20)     
1 38740U 12043A   26190.98725301  .00000000  00000+0  00000+0 0  9993
2 38740   0.0436  68.8286 0003359 128.7460 154.2151  1.00267370 50979
INTELSAT 21 (IS-21)     
1 38749U 12045A   26191.98318263  .00000000  00000+0  00000+0 0  9990
2 38749   0.0289  41.8678 0001729  93.0324  89.9423  1.00269914 50761
